ONEWEB-0564             
1 55801U 23029F   24239.74754358  .00000068  00000+0  13419-3 0  9992
2 55801  87.9202  45.6404 0002086  82.5802 277.5568 13.20772441 74106
ONEWEB-0638             
1 55802U 23029G   24240.21305137 -.00000051  00000+0 -17298-3 0  9997
2 55802  87.8925  60.8209 0001419  67.1917 292.9362 13.14504827 73538
ONEWEB-0639             
1 55803U 23029H   24239.80488903  .00000044  00000+0  78537-4 0  9998
2 55803  87.9096  76.1521 0000999 143.1934 216.9267 13.19727284 71933
ONEWEB-0640             
1 55804U 23029J   24239.76585383 -.00000126  00000+0 -37557-3 0  9993
2 55804  87.8926  60.9045 0001000  66.0814 294.0420 13.14503964 72785
ONEWEB-0641             
1 55805U 23029K   24239.95178794  .00000023  00000+0  25715-4 0  9997
2 55805  87.9092  76.1030 0001501  93.2343 266.8962 13.19726804 71961
ONEWEB-0642             
1 55806U 23029L   24239.94705779  .00000017  00000+0  93156-5 0  9994
2 55806  87.9096  76.1293 0001327 126.3811 233.7444 13.19723244 71953
ONEWEB-0643             
1 55807U 23029M   24239.73573329  .00000205  00000+0  51854-3 0  9992
2 55807  87.8927  60.8887 0001937 120.5089 239.6232 13.14503036 72754
ONEWEB-0644             
1 55808U 23029N   24239.94231303  .00000012  00000+0 -11840-5 0  9999
2 55808  87.9099  76.1279 0001398 108.4082 251.7203 13.19726578 71957
